{"type": "FeatureCollection", "features": [ {"type": "Feature", "properties": {"norad_id": 30742, "name": "FENGYUN 1C DEB", "group": "fengyun-1c-debris", "lat": 51.440384156902475, "lon": 22.049678568727828, "alt_km": 903.6823804180158, "timestamp": "2025-12-14T22:38:41.036541+00:00", "meta": {"OBJECT_NAME": "FENGYUN 1C DEB", "OBJECT_ID": "1999-025ATC", "EPOCH": "2025-12-14T02:13:39.311040", "MEAN_MOTION": 14.10377814, "ECCENTRICITY": 0.00711952, "INCLINATION": 98.8686, "RA_OF_ASC_NODE": 32.5061, "ARG_OF_PERICENTER": 223.0427, "MEAN_ANOMALY": 192.5187, "EPHEMERIS_TYPE": 0, "CLASSIFICATION_TYPE": "U", "NORAD_CAT_ID": 30742, "ELEMENT_SET_NO": 999, "REV_AT_EPOCH": 96061, "BSTAR": 0.0016871688, "MEAN_MOTION_DOT": 3.025e-05, "MEAN_MOTION_DDOT": 0}, "tle": {"line1": "1 30742U 99025ATC 25348.09281610  .00003025  00000+0  16872-2 0  9995", "line2": "2 30742  98.8686  32.5061 0071195 223.0427 192.5187 14.10377814960614"}}, "geometry": {"type": "Point", "coordinates": [22.049678568727828, 51.440384156902475]}}, {"type": "Feature", "properties": {"norad_id": 30744, "name": "FENGYUN 1C DEB", "group": "fengyun-1c-debris", "lat": 81.09021985421073, "lon": 56.76708179618791, "alt_km": 598.5338659176923, "timestamp": "2025-12-14T22:38:41.036551+00:00", "meta": {"OBJECT_NAME": "FENGYUN 1C DEB", "OBJECT_ID": "1999-025ATE", "EPOCH": "2025-12-13T22:36:53.663328", "MEAN_MOTION": 14.89662666, "ECCENTRICITY": 0.00104558, "INCLINATION": 98.7282, "RA_OF_ASC_NODE": 134.1741, "ARG_OF_PERICENTER": 274.1574, "MEAN_ANOMALY": 207.6815, "EPHEMERIS_TYPE": 0, "CLASSIFICATION_TYPE": "U", "NORAD_CAT_ID": 30744, "ELEMENT_SET_NO": 999, "REV_AT_EPOCH": 98106, "BSTAR": 0.0047496999, "MEAN_MOTION_DOT": 0.00045685, "MEAN_MOTION_DDOT": 0}, "tle": {"line1": "1 30744U 99025ATE 25347.94228777  .00045685  00000+0  47497-2 0  9990", "line2": "2 30744  98.7282 134.1741 0010455 274.1574 207.6815 14.89662666981069"}}, "geometry": {"type": "Point", "coordinates": [56.76708179618791, 81.09021985421073]}}, {"type": "Feature", "properties": {"norad_id": 30746, "name": "FENGYUN 1C DEB", "group": "fengyun-1c-debris", "lat": 15.932221360047361, "lon": -7.774253885448613, "alt_km": 828.767883538635, "timestamp": "2025-12-14T22:38:41.036569+00:00", "meta": {"OBJECT_NAME": "FENGYUN 1C DEB", "OBJECT_ID": "1999-025ATG", "EPOCH": "2025-12-14T05:19:26.459328", "MEAN_MOTION": 14.27518977, "ECCENTRICITY": 0.00461682, "INCLINATION": 99.0573, "RA_OF_ASC_NODE": 168.8684, "ARG_OF_PERICENTER": 313.974, "MEAN_ANOMALY": 103.2895, "EPHEMERIS_TYPE": 0, "CLASSIFICATION_TYPE": "U", "NORAD_CAT_ID": 30746, "ELEMENT_SET_NO": 999, "REV_AT_EPOCH": 97467, "BSTAR": 0.00059392719, "MEAN_MOTION_DOT": 1.429e-05, "MEAN_MOTION_DDOT": 0}, "tle": {"line1": "1 30746U 99025ATG 25348.22183402  .00001429  00000+0  59393-3 0  9996", "line2": "2 30746  99.0573 168.8684 0046168 313.9740 103.2895 14.27518977974670"}}, "geometry": {"type": "Point", "coordinates": [-7.774253885448613, 15.932221360047361]}}, {"type": "Feature", "properties": {"norad_id": 30749, "name": "FENGYUN 1C DEB", "group": "fengyun-1c-debris", "lat": -56.39783398852643, "lon": 29.305915572634017, "alt_km": 891.5988050934784, "timestamp": "2025-12-14T22:38:41.036579+00:00", "meta": {"OBJECT_NAME": "FENGYUN 1C DEB", "OBJECT_ID": "1999-025ATK", "EPOCH": "2025-12-14T07:28:50.202624", "MEAN_MOTION": 13.99837977, "ECCENTRICITY": 0.00555108, "INCLINATION": 98.8875, "RA_OF_ASC_NODE": 15.072, "ARG_OF_PERICENTER": 228.0563, "MEAN_ANOMALY": 131.5864, "EPHEMERIS_TYPE": 0, "CLASSIFICATION_TYPE": "U", "NORAD_CAT_ID": 30749, "ELEMENT_SET_NO": 999, "REV_AT_EPOCH": 95988, "BSTAR": 0.00010486288, "MEAN_MOTION_DOT": 1.13e-06, "MEAN_MOTION_DDOT": 0}, "tle": {"line1": "1 30749U 99025ATK 25348.31169216  .00000113  00000+0  10486-3 0  9995", "line2": "2 30749  98.8875  15.0720 0055510 228.0563 131.5864 13.99837977959887"}}, "geometry": {"type": "Point", "coordinates": [29.305915572634017, -56.39783398852643]}}, {"type": "Feature", "properties": {"norad_id": 30750, "name": "FENGYUN 1C DEB", "group": "fengyun-1c-debris", "lat": 74.8282167798868, "lon": 28.148652114022813, "alt_km": 761.2486641579153, "timestamp": "2025-12-14T22:38:41.036589+00:00", "meta": {"OBJECT_NAME": "FENGYUN 1C DEB", "OBJECT_ID": "1999-025ATL", "EPOCH": "2025-12-14T03:53:31.532064", "MEAN_MOTION": 14.28623076, "ECCENTRICITY": 0.0040446, "INCLINATION": 98.9196, "RA_OF_ASC_NODE": 62.7414, "ARG_OF_PERICENTER": 95.9738, "MEAN_ANOMALY": 285.5465, "EPHEMERIS_TYPE": 0, "CLASSIFICATION_TYPE": "U", "NORAD_CAT_ID": 30750, "ELEMENT_SET_NO": 999, "REV_AT_EPOCH": 96802, "BSTAR": 0.0020133859, "MEAN_MOTION_DOT": 5.058e-05, "MEAN_MOTION_DDOT": 0}, "tle": {"line1": "1 30750U 99025ATL 25348.16217051  .00005058  00000+0  20134-2 0  9994", "line2": "2 30750  98.9196  62.7414 0040446  95.9738 285.5465 14.28623076968021"}}, "geometry": {"type": "Point", "coordinates": [28.148652114022813, 74.8282167798868]}}, {"type": "Feature", "properties": {"norad_id": 30751, "name": "FENGYUN 1C DEB", "group": "fengyun-1c-debris", "lat": 62.553862876621714, "lon": 30.662405843639352, "alt_km": 801.5766728016933, "timestamp": "2025-12-14T22:38:41.036599+00:00", "meta": {"OBJECT_NAME": "FENGYUN 1C DEB", "OBJECT_ID": "1999-025ATM", "EPOCH": "2025-12-13T18:05:22.297920", "MEAN_MOTION": 14.1520958, "ECCENTRICITY": 0.00522719, "INCLINATION": 98.8556, "RA_OF_ASC_NODE": 46.9493, "ARG_OF_PERICENTER": 93.7016, "MEAN_ANOMALY": 32.1559, "EPHEMERIS_TYPE": 0, "CLASSIFICATION_TYPE": "U", "NORAD_CAT_ID": 30751, "ELEMENT_SET_NO": 999, "REV_AT_EPOCH": 96290, "BSTAR": 0.001795776, "MEAN_MOTION_DOT": 3.493e-05, "MEAN_MOTION_DDOT": 0}, "tle": {"line1": "1 30751U 99025ATM 25347.75373030  .00003493  00000+0  17958-2 0  9990", "line2": "2 30751  98.8556  46.9493 0052271  93.7016  32.1559 14.15209580962903"}}, "geometry": {"type": "Point", "coordinates": [30.662405843639352, 62.553862876621714]}}, {"type": "Feature", "properties": {"norad_id": 30753, "name": "FENGYUN 1C DEB", "group": "fengyun-1c-debris", "lat": -24.45359309321615, "lon": -156.5447690218401, "alt_km": 888.0924190940632, "timestamp": "2025-12-14T22:38:41.036609+00:00", "meta": {"OBJECT_NAME": "FENGYUN 1C DEB", "OBJECT_ID": "1999-025ATP", "EPOCH": "2025-12-14T08:04:39.536544", "MEAN_MOTION": 14.1265273, "ECCENTRICITY": 0.00553027, "INCLINATION": 98.8078, "RA_OF_ASC_NODE": 26.9016, "ARG_OF_PERICENTER": 350.4908, "MEAN_ANOMALY": 9.5212, "EPHEMERIS_TYPE": 0, "CLASSIFICATION_TYPE": "U", "NORAD_CAT_ID": 30753, "ELEMENT_SET_NO": 999, "REV_AT_EPOCH": 96374, "BSTAR": 0.0012901439, "MEAN_MOTION_DOT": 2.382e-05, "MEAN_MOTION_DDOT": 0}, "tle": {"line1": "1 30753U 99025ATP 25348.33656871  .00002382  00000+0  12901-2 0  9993", "line2": "2 30753  98.8078  26.9016 0055302 350.4908   9.5212 14.12652730963747"}}, "geometry": {"type": "Point", "coordinates": [-156.5447690218401, -24.45359309321615]}}, {"type": "Feature", "properties": {"norad_id": 30755, "name": "FENGYUN 1C DEB", "group": "fengyun-1c-debris", "lat": -40.69508057683771, "lon": 156.27241243226456, "alt_km": 667.2328844031426, "timestamp": "2025-12-14T22:38:41.036619+00:00", "meta": {"OBJECT_NAME": "FENGYUN 1C DEB", "OBJECT_ID": "1999-025ATR", "EPOCH": "2025-12-13T18:12:31.973760", "MEAN_MOTION": 14.44960434, "ECCENTRICITY": 0.01508249, "INCLINATION": 98.2589, "RA_OF_ASC_NODE": 342.2956, "ARG_OF_PERICENTER": 265.9833, "MEAN_ANOMALY": 276.548, "EPHEMERIS_TYPE": 0, "CLASSIFICATION_TYPE": "U", "NORAD_CAT_ID": 30755, "ELEMENT_SET_NO": 999, "REV_AT_EPOCH": 98459, "BSTAR": 0.00083205626, "MEAN_MOTION_DOT": 3.287e-05, "MEAN_MOTION_DDOT": 0}, "tle": {"line1": "1 30755U 99025ATR 25347.75870340  .00003287  00000+0  83206-3 0  9991", "line2": "2 30755  98.2589 342.2956 0150824 265.9833 276.5480 14.44960434984596"}}, "geometry": {"type": "Point", "coordinates": [156.27241243226456, -40.69508057683771]}}, {"type": "Feature", "properties": {"norad_id": 30756, "name": "FENGYUN 1C DEB", "group": "fengyun-1c-debris", "lat": -16.257997099724037, "lon": 59.02505427814876, "alt_km": 793.0948482728109, "timestamp": "2025-12-14T22:38:41.036629+00:00", "meta": {"OBJECT_NAME": "FENGYUN 1C DEB", "OBJECT_ID": "1999-025ATS", "EPOCH": "2025-12-14T04:21:55.933632", "MEAN_MOTION": 14.18288148, "ECCENTRICITY": 0.00712695, "INCLINATION": 98.991, "RA_OF_ASC_NODE": 55.6073, "ARG_OF_PERICENTER": 311.9758, "MEAN_ANOMALY": 104.6088, "EPHEMERIS_TYPE": 0, "CLASSIFICATION_TYPE": "U", "NORAD_CAT_ID": 30756, "ELEMENT_SET_NO": 999, "REV_AT_EPOCH": 96425, "BSTAR": 0.0016496987, "MEAN_MOTION_DOT": 3.438e-05, "MEAN_MOTION_DDOT": 0}, "tle": {"line1": "1 30756U 99025ATS 25348.18189738  .00003438  00000+0  16497-2 0  9999", "line2": "2 30756  98.9910  55.6073 0071269 311.9758 104.6088 14.18288148964252"}}, "geometry": {"type": "Point", "coordinates": [59.02505427814876, -16.257997099724037]}}, {"type": "Feature", "properties": {"norad_id": 30758, "name": "FENGYUN 1C DEB", "group": "fengyun-1c-debris", "lat": 6.8216743047861685, "lon": 106.58009161786401, "alt_km": 809.8045530632044, "timestamp": "2025-12-14T22:38:41.036661+00:00", "meta": {"OBJECT_NAME": "FENGYUN 1C DEB", "OBJECT_ID": "1999-025ATU", "EPOCH": "2025-12-14T07:39:40.316832", "MEAN_MOTION": 14.17119491, "ECCENTRICITY": 0.00383775, "INCLINATION": 99.018, "RA_OF_ASC_NODE": 107.0357, "ARG_OF_PERICENTER": 358.7311, "MEAN_ANOMALY": 64.9664, "EPHEMERIS_TYPE": 0, "CLASSIFICATION_TYPE": "U", "NORAD_CAT_ID": 30758, "ELEMENT_SET_NO": 999, "REV_AT_EPOCH": 96513, "BSTAR": 0.0012645199, "MEAN_MOTION_DOT": 2.52e-05, "MEAN_MOTION_DDOT": 0}, "tle": {"line1": "1 30758U 99025ATU 25348.31921663  .00002520  00000+0  12645-2 0  9999", "line2": "2 30758  99.0180 107.0357 0038377 358.7311  64.9664 14.17119491965138"}}, "geometry": {"type": "Point", "coordinates": [106.58009161786401, 6.8216743047861685]}}]}